[{"OBJECT_NAME":"STARLINK-4322","OBJECT_ID":"2022-077AM","EPOCH":"2026-03-09T11:04:22.522656","MEAN_MOTION":15.01263442,"ECCENTRICITY":0.00023461,"INCLINATION":97.6044,"RA_OF_ASC_NODE":249.9874,"ARG_OF_PERICENTER":125.0708,"MEAN_ANOMALY":235.0737,"EPHEMERIS_TYPE":0,"CLASSIFICATION_TYPE":"U","NORAD_CAT_ID":53078,"ELEMENT_SET_NO":999,"REV_AT_EPOCH":20088,"BSTAR":3.7429789e-5,"MEAN_MOTION_DOT":4.22e-6,"MEAN_MOTION_DDOT":0},{"OBJECT_NAME":"FENGYUN 1C DEB","OBJECT_ID":"1999-025CEL","EPOCH":"2026-03-09T13:55:44.240160","MEAN_MOTION":14.69547099,"ECCENTRICITY":0.0148084,"INCLINATION":97.9062,"RA_OF_ASC_NODE":104.3983,"ARG_OF_PERICENTER":98.2334,"MEAN_ANOMALY":51.9192,"EPHEMERIS_TYPE":0,"CLASSIFICATION_TYPE":"U","NORAD_CAT_ID":31737,"ELEMENT_SET_NO":999,"REV_AT_EPOCH":99474,"BSTAR":0.00068437,"MEAN_MOTION_DOT":4.757e-5,"MEAN_MOTION_DDOT":0}]
